BEIDOU 3 (C01)          
1 36287U 10001A   22011.94785931 -.00000271  00000+0  00000+0 0  9999
2 36287   1.8179  46.0328 0001562  53.3079 133.7128  1.00273549 43944
BEIDOU 5 (C06)          
1 36828U 10036A   22011.75466766 -.00000049  00000+0  00000+0 0  9992
2 36828  54.1865 177.6685 0027068 177.8109 134.1119  1.00292075 42006
BEIDOU 6 (C04)          
1 37210U 10057A   22011.87992811 -.00000102  00000+0  00000+0 0  9999
2 37210   0.8893  50.3721 0006086 163.0012  14.6797  1.00273533 41063
BEIDOU 7 (C07)          
1 37256U 10068A   22011.90273177 -.00000205  00000+0  00000+0 0  9996
2 37256  50.4913 291.5173 0017960 191.3360  58.8300  1.00298955 40570
BEIDOU 8 (C08)          
1 37384U 11013A   22011.48391390 -.00000186  00000+0  00000+0 0  9998
2 37384  60.0676  55.8191 0021606 192.3500 142.8523  1.00296567 39447
BEIDOU 9 (C09)          
1 37763U 11038A   22012.16627810 -.00000001  00000+0  00000+0 0  9997
2 37763  54.4724 180.1364 0087083 225.1121 221.5426  1.00266932 38436
BEIDOU 10 (C10)         
1 37948U 11073A   22012.12907791 -.00000159  00000+0  00000+0 0  9990
2 37948  50.6040 291.1476 0078301 219.4211 102.0704  1.00287994 37180
BEIDOU 11 (C05)         
1 38091U 12008A   22012.14680424  .00000067  00000+0  00000+0 0  9999
2 38091   2.0147  71.7209 0006623 275.5858 235.8388  1.00271170 36263
BEIDOU 12 (C11)         
1 38250U 12018A   22011.69568439 -.00000093  00000+0  00000+0 0  9997
2 38250  56.7301 358.7376 0024848 253.8270 337.5575  1.86234302 66167
BEIDOU 13 (C12)         
1 38251U 12018B   22011.62825818 -.00000094  00000+0  00000+0 0  9999
2 38251  56.6504 358.0734 0015541 258.2730 332.1835  1.86233958 66169
BEIDOU 15 (C14)         
1 38775U 12050B   22011.52519169 -.00000043  00000+0  00000+0 0  9998
2 38775  55.3127 116.9701 0011985 322.6438  35.6164  1.86231235 63535
BEIDOU 16 (C02)         
1 38953U 12059A   22012.65815530 -.00000164  00000+0  00000+0 0  9995
2 38953   1.6064  84.5534 0011707 279.1746  69.3643  1.00271191 33838
BEIDOU 17 (C31)         
1 40549U 15019A   22012.24840186 -.00000196  00000+0  00000+0 0  9993
2 40549  52.1543 314.5707 0035725 191.2546 151.6284  1.00275571 24866
BEIDOU 18 (C57)         
1 40748U 15037A   22012.30474416 -.00000096  00000+0  00000+0 0  9999
2 40748  55.9072 357.0121 0004102 332.7227 260.9636  1.86233243 44007
BEIDOU 19 (C58)         
1 40749U 15037B   22012.10082769 -.00000096  00000+0  00000+0 0  9994
2 40749  55.9097 357.0089 0006816 304.8993 287.2317  1.86232058 43990
BEIDOU 20 (C18)         
1 40938U 15053A   22011.77370740 -.00000135  00000+0  00000+0 0  9997
2 40938  51.7415 277.6753 0043078 194.3532  13.6376  1.00282108 23132
BEIDOU IGSO-6 (C13)     
1 41434U 16021A   22011.58002016 -.00000163  00000+0  00000+0 0  9993
2 41434  57.8672  54.4671 0045033 216.5517 144.7264  1.00272244 21263
BEIDOU-2 G7 (C03)       
1 41586U 16037A   22012.16080588 -.00000344  00000+0  00000+0 0  9994
2 41586   1.6325  66.9190 0008250   0.4843 212.6450  1.00271846 20560
BEIDOU-3 M1 (C19)       
1 43001U 17069A   22012.49533154 -.00000050  00000+0  00000+0 0  9996
2 43001  55.4670 116.9170 0008545 283.9340 160.8954  1.86231545 28494
BEIDOU-3 M2 (C20)       
1 43002U 17069B   22012.31064427 -.00000048  00000+0  00000+0 0  9997
2 43002  55.4669 116.9591 0006674 309.3252  54.8773  1.86231282 28484
BEIDOU-3 M3 (C27)       
1 43107U 18003A   22011.83484958 -.00000097  00000+0  00000+0 0  9997
2 43107  55.3545 358.0150 0003734  36.3003 174.8906  1.86232375 27234
BEIDOU-3 M4 (C28)       
1 43108U 18003B   22012.30731839 -.00000097  00000+0  00000+0 0  9994
2 43108  55.3486 357.9896 0004151 259.9882 312.7336  1.86230813 27242
BEIDOU-3 M5 (C21)       
1 43207U 18018A   22011.36258796 -.00000041  00000+0  00000+0 0  9990
2 43207  55.4253 117.0740 0004050 338.5861  21.3883  1.86231399 26617
BEIDOU-3 M6 (C22)       
1 43208U 18018B   22011.96622920 -.00000046  00000+0  00000+0 0  9996
2 43208  55.4250 117.0589 0006307 295.9075  64.0158  1.86231587 26625
BEIDOU-3 M7 (C29)       
1 43245U 18029A   22012.35951934 -.00000098  00000+0  00000+0 0  9990
2 43245  55.2760 355.7766 0001485 287.2102 186.0782  1.86232525 25782
BEIDOU-3 M8 (C30)       
1 43246U 18029B   22012.38868587 -.00000098  00000+0  10000-3 0  9990
2 43246  55.2735 355.8062 0004691 337.9960 201.2511  1.86232712 25779
BEIDOU IGSO-7 (C16)     
1 43539U 18057A   22011.87042132 -.00000054  00000+0  00000+0 0  9996
2 43539  55.0674 177.0912 0040393 220.4499 139.2334  1.00257681 12940
BEIDOU-3 M9 (C23)       
1 43581U 18062A   22011.15520478  .00000055  00000+0  00000+0 0  9994
2 43581  54.3256 237.4739 0003039 316.3715 326.4444  1.86231892 23499
BEIDOU-3 M10 (C24)      
1 43582U 18062B   22012.64327572  .00000075  00000+0  00000+0 0  9992
2 43582  54.3244 237.4132 0006837  14.4854 277.6481  1.86232283 23520
BEIDOU-3 M11 (C25)      
1 43602U 18067A   22012.42302527  .00000075  00000+0  00000+0 0  9999
2 43602  54.4037 236.0218 0007957  10.2236 175.9349  1.86231532 23019
BEIDOU-3 M12 (C26)      
1 43603U 18067B   22011.79050223  .00000068  00000+0  00000+0 0  9994
2 43603  54.4010 236.0099 0005028   3.4585  29.0313  1.86231485 23024
BEIDOU-3 M13 (C32)      
1 43622U 18072A   22012.34814023 -.00000049  00000+0  00000+0 0  9999
2 43622  55.3918 116.6019 0005211 275.0615 161.0690  1.86231403 22543
BEIDOU-3 M14 (C33)      
1 43623U 18072B   22012.02163944 -.00000047  00000+0  00000+0 0  9992
2 43623  55.3929 116.6055 0003116 305.2244   2.2336  1.86231368 22534
BEIDOU-3 M15 (C34)      
1 43647U 18078A   22011.43506836 -.00000098  00000+0  10000-3 0  9990
2 43647  55.1692 355.9797 0006892 347.4284 182.0954  1.86232521 22032
BEIDOU-3 M16 (C35)      
1 43648U 18078B   22011.63127468 -.00000098  00000+0  00000+0 0  9998
2 43648  55.1660 355.9803 0004471 352.7811 216.3735  1.86232167 22058
BEIDOU-3 G1 (C59)       
1 43683U 18085A   22012.16302684 -.00000266  00000+0  00000+0 0  9996
2 43683   0.8452 194.5602 0003137  28.5931  87.0860  1.00276870 11837
BEIDOU-3 M17 (C36)      
1 43706U 18093A   22012.00877752  .00000067  00000+0  00000+0 0  9995
2 43706  54.4057 237.3178 0007630 286.0427  73.9481  1.86232080 21402
BEIDOU-3 M18 (C37)      
1 43707U 18093B   22012.30444120  .00000071  00000+0  00000+0 0  9993
2 43707  54.4068 237.2997 0007750 316.7270 332.5605  1.86232148 21411
BEIDOU-3 IGSO-1 (C38)   
1 44204U 19023A   22012.01501740 -.00000220  00000+0  00000+0 0  9997
2 44204  56.3272  54.6600 0022707 193.9634 345.5378  1.00258018 10141
BEIDOU-2 G8             
1 44231U 19027A   22012.26202591 -.00000236  00000+0  00000+0 0  9997
2 44231   0.5049  64.2696 0006101 148.9126 137.3687  1.00267858  9850
BEIDOU-3 IGSO-2 (C39)   
1 44337U 19035A   22012.34910498 -.00000065  00000+0  00000+0 0  9994
2 44337  55.1037 173.1217 0020759 177.1083   3.0522  1.00247850  9486
BEIDOU-3 M23 (C45)      
1 44542U 19061A   22012.48742927  .00000074  00000+0  10000-3 0  9990
2 44542  54.6321 237.4132 0009006 348.8926  15.4896  1.86231514 15683
BEIDOU-3 M24 (C46)      
1 44543U 19061B   22011.54146396  .00000061  00000+0  10000-3 0  9991
2 44543  54.6302 237.4156 0006022 345.1623  16.0907  1.86231825 15661
BEIDOU-3 IGSO-3         
1 44709U 19073A   22011.78400716 -.00000206  00000+0  00000+0 0  9990
2 44709  57.5180 298.0084 0017943 185.1684  27.7839  1.00254585  8239
BEIDOU-3 M21            
1 44793U 19078A   22012.50565256 -.00000099  00000+0  10000-3 0  9995
2 44793  55.0198 355.9843 0006458 354.2561 127.1958  1.86232201 14545
BEIDOU-3 M22            
1 44794U 19078B   22011.65808150 -.00000099  00000+0  00000+0 0  9999
2 44794  54.9925 356.0079 0004695 345.9184 198.6391  1.86232637 14529
BEIDOU-3 M19            
1 44864U 19090A   22012.19740552 -.00000048  00000+0  00000+0 0  9996
2 44864  55.3264 116.8270 0015743 263.6184 117.0822  1.86231738 14126
BEIDOU-3 M20            
1 44865U 19090B   22012.58454993 -.00000050  00000+0  00000+0 0  9994
2 44865  55.3285 116.8451 0013707 278.8915  91.2629  1.86231671 14101
BEIDOU-3 G2             
1 45344U 20017A   22012.50998123 -.00000127  00000+0  00000+0 0  9993
2 45344   2.1908 344.7839 0000120 359.6800  31.1494  1.00272120  7064
BEIDOU-3 G3             
1 45807U 20040A   22011.74137649 -.00000341  00000+0  00000+0 0  9994
2 45807   1.8010 300.0972 0008978 347.7284 200.7973  1.00270591  5866
